{
  "norad_id": 59554,
  "name": "STARLINK-31724",
  "history": [
    {
      "epoch": "2026-03-28T17:06:37.071648",
      "apogee_km": 483.63413134181155,
      "perigee_km": 482.3908910503824,
      "latitude_deg": -36.21883439977394,
      "longitude_deg": -156.1588092802558,
      "semi_major_axis_km": 6861.149511196097,
      "eccentricity": 9.06e-05,
      "inclination_deg": 43.0034,
      "raan_deg": 200.0545,
      "arg_perigee_deg": 261.3254,
      "mean_anomaly_deg": 98.7495,
      "mean_motion_rev_day": 15.27592218
    }
  ]
}